COSMOS 2419 (714)       
1 28915U 05050A   16321.42807104 -.00000016  00000-0  00000+0 0  9991
2 28915  65.3941  73.0268 0014200 356.3008 298.6482  2.13106026 84791
COSMOS 2425 (716)       
1 29670U 06062A   16320.75234105 -.00000022  00000-0  10000-3 0  9996
2 29670  65.5651 312.0563 0021368 337.5336 214.6654  2.13105056 76985
COSMOS 2426 (717)       
1 29671U 06062B   16322.56161843  .00000000  00000-0  10000-3 0  9991
2 29671  65.5822 312.0797 0017058 174.3461 185.6808  2.13101651 77034
COSMOS 2424 (715)       
1 29672U 06062C   16321.51916380 -.00000023  00000-0  10000-3 0  9996
2 29672  65.5666 312.0408 0016920 174.3416 281.9139  2.13102291 77002
COSMOS 2433 (720)       
1 32275U 07052A   16321.65122166 -.00000016  00000-0  10000-3 0  9997
2 32275  65.4088  72.7927 0002104 218.3748 135.5598  2.13104998 70512
COSMOS 2432 (719)       
1 32276U 07052B   16321.72812899 -.00000015  00000-0  10000-3 0  9994
2 32276  65.4222  72.8595 0009818 340.5287  25.8501  2.13104126 70529
COSMOS 2434 (721)       
1 32393U 07065A   16321.64360271 -.00000024  00000-0  00000+0 0  9996
2 32393  65.1823 311.2759 0002285 158.9110  80.1059  2.13102948 69229
COSMOS 2436 (723)       
1 32395U 07065C   16321.24125756 -.00000024  00000-0  10000-3 0  9996
2 32395  65.1958 311.3346 0016662 343.8904  38.4863  2.13102976 69155
COSMOS 2443 (725)       
1 33379U 08046B   16321.38431777 -.00000017  00000-0  10000-3 0  9999
2 33379  65.3390  72.2046 0017219 180.8669 231.3834  2.13100962 63380
COSMOS 2456 (730)       
1 36111U 09070A   16321.13837189  .00000058  00000-0  00000+0 0  9993
2 36111  64.1779 190.8633 0003769 329.8106  51.8556  2.13103063 53885
COSMOS 2457 (733)       
1 36112U 09070B   16322.34921559  .00000000  00000-0  10000-3 0  9995
2 36112  64.1611 190.7463 0006920 152.7254 207.4085  2.13101203 53914
COSMOS 2458 (734)       
1 36113U 09070C   16320.52814275  .00000066  00000-0  10000-3 0  9992
2 36113  64.1661 190.8147 0001907  42.9137  47.8148  2.13101961 53872
COSMOS 2459 (731)       
1 36400U 10007A   16321.43597182 -.00000017  00000-0  10000-3 0  9996
2 36400  65.3176  71.9323 0026265 355.0774  57.7163  2.13102282 52243
COSMOS 2461 (735)       
1 36401U 10007B   16320.89142178 -.00000019  00000-0  10000-3 0  9999
2 36401  65.3116  71.9311 0007220  83.5990 182.0356  2.13102267 52225
COSMOS 2460 (732)       
1 36402U 10007C   16321.11348398 -.00000018  00000-0  10000-3 0  9997
2 36402  65.3010  71.8987 0001717 134.6198 342.9825  2.13101894 52234
COSMOS 2465 (737)       
1 37138U 10041B   16321.52092425 -.00000025  00000-0  00000+0 0  9997
2 37138  64.7813 311.3759 0035812 176.2201  11.9611  2.13103490 48318
COSMOS 2464 (736)       
1 37139U 10041C   16321.71658039 -.00000025  00000-0  00000+0 0  9998
2 37139  64.7892 311.3665 0021575   5.2714 157.4380  2.13102709 48325
COSMOS 2471 (701K)      
1 37372U 11009A   16321.71094962 -.00000017  00000-0  00000+0 0  9992
2 37372  65.2989  71.8265 0007732 224.1862 124.8710  2.13102864 44510
COSMOS 2474 (742)       
1 37829U 11055A   16321.06136451  .00000059  00000-0  00000+0 0  9993
2 37829  64.5030 191.3423 0007128 249.0286 294.2889  2.13102022 39873
COSMOS 2476 (744)       
1 37867U 11064A   16320.59388679  .00000065  00000-0  00000+0 0  9990
2 37867  64.4824 191.4359 0016172 244.1129 346.4478  2.13102044 39211
COSMOS 2477 (745)       
1 37868U 11064B   16321.38166501  .00000055  00000-0  00000+0 0  9996
2 37868  64.4914 191.4514 0014105 244.8621  49.3070  2.13101994 39189
COSMOS 2475 (743)       
1 37869U 11064C   16320.97908064  .00000060  00000-0  00000+0 0  9995
2 37869  64.4974 191.4541 0019180 274.1478  27.4449  2.13102318 39188
COSMOS 2485 (747)       
1 39155U 13019A   16321.19199794  .00000058  00000-0  00000+0 0  9991
2 39155  64.6521 191.3989 0016560 238.1815 136.3336  2.13102155 27706
COSMOS 2492 (754)       
1 39620U 14012A   16321.73801949 -.00000017  00000-0  10000-3 0  9995
2 39620  65.1907  71.8448 0013485 332.5651 134.4711  2.13103360 20662
COSMOS 2500 (755)       
1 40001U 14032A   16321.43147566 -.00000018  00000-0  00000+0 0  9993
2 40001  65.1306  71.8670 0006978 192.5565 262.7921  2.13102915 18877
COSMOS 2501 (702K)      
1 40315U 14075A   16321.27396846 -.00000026  00000-0  00000+0 0  9996
2 40315  64.5157 312.7982 0015603 215.8676 287.0365  2.13082776 15277
COSMOS 2514 (751)       
1 41330U 16008A   16321.43118094 -.00000018  00000-0  00000+0 0  9998
2 41330  64.9308  72.0657 0009791 205.5097  69.0465  2.13103536  6037
COSMOS 2516 (753)       
1 41554U 16032A   16321.45802686 -.00000026  00000-0  00000+0 0  9991
2 41554  64.7343 312.4970 0014135 229.7387 319.2465  2.13101710  3645
